ORBCOMM FM20            
1 25416U 98046D   25207.87830076  .00000875  00000+0  33795-3 0  9999
2 25416  44.9956 353.2954 0001806 165.1778 194.9123 14.37270143409978
ORBCOMM FM16            
1 25417U 98046E   25207.89643310  .00001086  00000+0  39454-3 0  9998
2 25417  44.9950 344.2565 0005513 152.1417 207.9727 14.38991638409971
ORBCOMM FM15            
1 25418U 98046F   25207.88244090  .00001085  00000+0  39702-3 0  9995
2 25418  44.9982 349.5868 0005127 151.6165 208.4963 14.38633634409962
ORBCOMM FM14            
1 25419U 98046G   25207.82079109  .00001076  00000+0  39133-3 0  9995
2 25419  44.9971 348.0023 0003920 151.1946 208.9120 14.38997003409928
ORBCOMM FM13            
1 25420U 98046H   25207.76102501  .00000936  00000+0  35499-3 0  9998
2 25420  44.9989 356.6491 0005628 128.5784 231.5569 14.37739452408938
ORBCOMM FM21            
1 25475U 98053A   25207.91538271  .00000728  00000+0  28849-3 0  9990
2 25475  45.0086  81.3462 0002145  47.2470 312.8559 14.37408798402963
ORBCOMM FM22            
1 25476U 98053B   25207.92347144  .00000994  00000+0  36890-3 0  9999
2 25476  45.0081  75.8387 0003927  57.7813 302.3416 14.38461388402993
ORBCOMM FM23            
1 25477U 98053C   25207.91102712  .00000972  00000+0  36790-3 0  9994
2 25477  45.0087  83.4339 0003166  48.0808 312.0310 14.37596881403116
